[{"OBJECT_NAME":"STARLINK-2430","OBJECT_ID":"2021-027J","EPOCH":"2026-03-10T00:00:02.999808","MEAN_MOTION":15.1045293,"ECCENTRICITY":0.00018604,"INCLINATION":53.0671,"RA_OF_ASC_NODE":150.2034,"ARG_OF_PERICENTER":56.1684,"MEAN_ANOMALY":30.6201,"EPHEMERIS_TYPE":0,"CLASSIFICATION_TYPE":"U","NORAD_CAT_ID":48100,"ELEMENT_SET_NO":999,"REV_AT_EPOCH":580,"BSTAR":0.0050421315,"MEAN_MOTION_DOT":0.00084603,"MEAN_MOTION_DDOT":0},{"OBJECT_NAME":"FALCON 9 DEB","OBJECT_ID":"2021-041BJ","EPOCH":"2026-03-09T14:15:46.870272","MEAN_MOTION":15.11971801,"ECCENTRICITY":0.0009424,"INCLINATION":53.0285,"RA_OF_ASC_NODE":180.5194,"ARG_OF_PERICENTER":169.4294,"MEAN_ANOMALY":190.6897,"EPHEMERIS_TYPE":0,"CLASSIFICATION_TYPE":"U","NORAD_CAT_ID":48609,"ELEMENT_SET_NO":999,"REV_AT_EPOCH":26442,"BSTAR":0.00034424,"MEAN_MOTION_DOT":5.684e-5,"MEAN_MOTION_DDOT":0}]
